{"type": "FeatureCollection", "features": [ {"type": "Feature", "properties": {"norad_id": 44476, "name": "INTELSAT 39 (IS-39)", "group": "intelsat", "lat": 0.014403108083503573, "lon": 124.67239233078575, "alt_km": 35781.937298058205, "timestamp": "2025-12-13T22:39:29.376469+00:00", "meta": {"OBJECT_NAME": "INTELSAT 39 (IS-39)", "OBJECT_ID": "2019-049B", "EPOCH": "2025-12-13T05:11:04.278336", "MEAN_MOTION": 1.00271017, "ECCENTRICITY": 0.00010274, "INCLINATION": 0.0032, "RA_OF_ASC_NODE": 1.4988, "ARG_OF_PERICENTER": 127.9762, "MEAN_ANOMALY": 92.3863, "EPHEMERIS_TYPE": 0, "CLASSIFICATION_TYPE": "U", "NORAD_CAT_ID": 44476, "ELEMENT_SET_NO": 999, "REV_AT_EPOCH": 2326, "BSTAR": 0, "MEAN_MOTION_DOT": 4.7e-07, "MEAN_MOTION_DDOT": 0}, "tle": {"line1": "1 44476U 19049B   25347.21602174  .00000047  00000+0  00000+0 0  9991", "line2": "2 44476   0.0032   1.4988 0001027 127.9762  92.3863  1.00271017 23269"}}, "geometry": {"type": "Point", "coordinates": [124.67239233078575, 0.014403108083503573]}}, {"type": "Feature", "properties": {"norad_id": 46114, "name": "GALAXY 30 (G-30)", "group": "intelsat", "lat": -0.022517036222304783, "lon": -62.24279384078927, "alt_km": 35778.009255296834, "timestamp": "2025-12-13T22:39:29.376480+00:00", "meta": {"OBJECT_NAME": "GALAXY 30 (G-30)", "OBJECT_ID": "2020-056C", "EPOCH": "2025-12-13T04:13:38.758656", "MEAN_MOTION": 1.00273102, "ECCENTRICITY": 0.00022004, "INCLINATION": 0.0169, "RA_OF_ASC_NODE": 337.4711, "ARG_OF_PERICENTER": 285.5899, "MEAN_ANOMALY": 117.4685, "EPHEMERIS_TYPE": 0, "CLASSIFICATION_TYPE": "U", "NORAD_CAT_ID": 46114, "ELEMENT_SET_NO": 999, "REV_AT_EPOCH": 1942, "BSTAR": 0, "MEAN_MOTION_DOT": 5e-07, "MEAN_MOTION_DDOT": 0}, "tle": {"line1": "1 46114U 20056C   25347.17614304  .00000050  00000+0  00000+0 0  9999", "line2": "2 46114   0.0169 337.4711 0002200 285.5899 117.4685  1.00273102 19424"}}, "geometry": {"type": "Point", "coordinates": [-62.24279384078927, -0.022517036222304783]}}, {"type": "Feature", "properties": {"norad_id": 54026, "name": "GALAXY 33 (G-33)", "group": "intelsat", "lat": -0.017487795948796753, "lon": -70.25341102751788, "alt_km": 35779.1073217225, "timestamp": "2025-12-13T22:39:29.376492+00:00", "meta": {"OBJECT_NAME": "GALAXY 33 (G-33)", "OBJECT_ID": "2022-128A", "EPOCH": "2025-12-13T04:13:38.758656", "MEAN_MOTION": 1.00271942, "ECCENTRICITY": 0.0001951, "INCLINATION": 0.0052, "RA_OF_ASC_NODE": 335.8431, "ARG_OF_PERICENTER": 280.0567, "MEAN_ANOMALY": 116.6241, "EPHEMERIS_TYPE": 0, "CLASSIFICATION_TYPE": "U", "NORAD_CAT_ID": 54026, "ELEMENT_SET_NO": 999, "REV_AT_EPOCH": 1187, "BSTAR": 0, "MEAN_MOTION_DOT": 9.2e-07, "MEAN_MOTION_DDOT": 0}, "tle": {"line1": "1 54026U 22128A   25347.17614304  .00000092  00000+0  00000+0 0  9998", "line2": "2 54026   0.0052 335.8431 0001951 280.0567 116.6241  1.00271942 11871"}}, "geometry": {"type": "Point", "coordinates": [-70.25341102751788, -0.017487795948796753]}}, {"type": "Feature", "properties": {"norad_id": 54027, "name": "GALAXY 34 (G-34)", "group": "intelsat", "lat": -0.03221813893035262, "lon": -66.19193099503222, "alt_km": 35781.394822286136, "timestamp": "2025-12-13T22:39:29.376504+00:00", "meta": {"OBJECT_NAME": "GALAXY 34 (G-34)", "OBJECT_ID": "2022-128B", "EPOCH": "2025-12-13T04:13:38.758656", "MEAN_MOTION": 1.00270299, "ECCENTRICITY": 0.00015112, "INCLINATION": 0.0217, "RA_OF_ASC_NODE": 352.8346, "ARG_OF_PERICENTER": 263.0256, "MEAN_ANOMALY": 120.7316, "EPHEMERIS_TYPE": 0, "CLASSIFICATION_TYPE": "U", "NORAD_CAT_ID": 54027, "ELEMENT_SET_NO": 999, "REV_AT_EPOCH": 1204, "BSTAR": 0, "MEAN_MOTION_DOT": 0, "MEAN_MOTION_DDOT": 0}, "tle": {"line1": "1 54027U 22128B   25347.17614304  .00000000  00000+0  00000+0 0  9998", "line2": "2 54027   0.0217 352.8346 0001511 263.0256 120.7316  1.00270299 12040"}}, "geometry": {"type": "Point", "coordinates": [-66.19193099503222, -0.03221813893035262]}}, {"type": "Feature", "properties": {"norad_id": 54243, "name": "GALAXY 31 (G-31)", "group": "intelsat", "lat": -0.015307592705959005, "lon": -58.26965354616431, "alt_km": 35780.65228664911, "timestamp": "2025-12-13T22:39:29.376515+00:00", "meta": {"OBJECT_NAME": "GALAXY 31 (G-31)", "OBJECT_ID": "2022-153A", "EPOCH": "2025-12-13T07:59:31.945632", "MEAN_MOTION": 1.00270542, "ECCENTRICITY": 0.00015098, "INCLINATION": 0.012, "RA_OF_ASC_NODE": 329.3321, "ARG_OF_PERICENTER": 306.7558, "MEAN_ANOMALY": 165.0544, "EPHEMERIS_TYPE": 0, "CLASSIFICATION_TYPE": "U", "NORAD_CAT_ID": 54243, "ELEMENT_SET_NO": 999, "REV_AT_EPOCH": 526, "BSTAR": 0, "MEAN_MOTION_DOT": 0, "MEAN_MOTION_DDOT": 0}, "tle": {"line1": "1 54243U 22153A   25347.33300863  .00000000  00000+0  00000+0 0  9996", "line2": "2 54243   0.0120 329.3321 0001509 306.7558 165.0544  1.00270542  5264"}}, "geometry": {"type": "Point", "coordinates": [-58.26965354616431, -0.015307592705959005]}}, {"type": "Feature", "properties": {"norad_id": 54244, "name": "GALAXY 32 (G-32)", "group": "intelsat", "lat": -0.011154140271451424, "lon": -28.255657444970563, "alt_km": 35775.79852561315, "timestamp": "2025-12-13T22:39:29.376527+00:00", "meta": {"OBJECT_NAME": "GALAXY 32 (G-32)", "OBJECT_ID": "2022-153B", "EPOCH": "2025-12-12T13:02:51.144864", "MEAN_MOTION": 1.00272099, "ECCENTRICITY": 0.00025848, "INCLINATION": 0.0111, "RA_OF_ASC_NODE": 11.8146, "ARG_OF_PERICENTER": 300.84, "MEAN_ANOMALY": 233.5475, "EPHEMERIS_TYPE": 0, "CLASSIFICATION_TYPE": "U", "NORAD_CAT_ID": 54244, "ELEMENT_SET_NO": 999, "REV_AT_EPOCH": 1127, "BSTAR": 0, "MEAN_MOTION_DOT": -1.63e-06, "MEAN_MOTION_DDOT": 0}, "tle": {"line1": "1 54244U 22153B   25346.54364751 -.00000163  00000+0  00000+0 0  9996", "line2": "2 54244   0.0111  11.8146 0002584 300.8400 233.5475  1.00272099 11279"}}, "geometry": {"type": "Point", "coordinates": [-28.255657444970563, -0.011154140271451424]}}, {"type": "Feature", "properties": {"norad_id": 54741, "name": "GALAXY 35 (G-35)", "group": "intelsat", "lat": 0.010998283565793165, "lon": -30.337665579088355, "alt_km": 35781.379552922095, "timestamp": "2025-12-13T22:39:29.376572+00:00", "meta": {"OBJECT_NAME": "GALAXY 35 (G-35)", "OBJECT_ID": "2022-170A", "EPOCH": "2025-12-13T04:26:46.019904", "MEAN_MOTION": 1.00271192, "ECCENTRICITY": 0.00024437, "INCLINATION": 0.015, "RA_OF_ASC_NODE": 285.7451, "ARG_OF_PERICENTER": 342.2776, "MEAN_ANOMALY": 147.6965, "EPHEMERIS_TYPE": 0, "CLASSIFICATION_TYPE": "U", "NORAD_CAT_ID": 54741, "ELEMENT_SET_NO": 999, "REV_AT_EPOCH": 1102, "BSTAR": 0, "MEAN_MOTION_DOT": -1.49e-06, "MEAN_MOTION_DDOT": 0}, "tle": {"line1": "1 54741U 22170A   25347.18525486 -.00000149  00000+0  00000+0 0  9996", "line2": "2 54741   0.0150 285.7451 0002443 342.2776 147.6965  1.00271192 11020"}}, "geometry": {"type": "Point", "coordinates": [-30.337665579088355, 0.010998283565793165]}}, {"type": "Feature", "properties": {"norad_id": 54742, "name": "GALAXY 36 (G-36)", "group": "intelsat", "lat": -0.017483443494426872, "lon": -26.259838998600266, "alt_km": 35784.75181614857, "timestamp": "2025-12-13T22:39:29.376598+00:00", "meta": {"OBJECT_NAME": "GALAXY 36 (G-36)", "OBJECT_ID": "2022-170B", "EPOCH": "2025-12-13T04:28:00.901056", "MEAN_MOTION": 1.0027219, "ECCENTRICITY": 3.598e-05, "INCLINATION": 0.0372, "RA_OF_ASC_NODE": 135.2399, "ARG_OF_PERICENTER": 165.2612, "MEAN_ANOMALY": 119.6285, "EPHEMERIS_TYPE": 0, "CLASSIFICATION_TYPE": "U", "NORAD_CAT_ID": 54742, "ELEMENT_SET_NO": 999, "REV_AT_EPOCH": 1090, "BSTAR": 0, "MEAN_MOTION_DOT": -1.72e-06, "MEAN_MOTION_DDOT": 0}, "tle": {"line1": "1 54742U 22170B   25347.18612154 -.00000172  00000+0  00000+0 0  9992", "line2": "2 54742   0.0372 135.2399 0000359 165.2612 119.6285  1.00272190 10902"}}, "geometry": {"type": "Point", "coordinates": [-26.259838998600266, -0.017483443494426872]}}, {"type": "Feature", "properties": {"norad_id": 57493, "name": "GALAXY 37 (G-37)", "group": "intelsat", "lat": -0.024427091761605985, "lon": -64.2524987730278, "alt_km": 35778.13346241977, "timestamp": "2025-12-13T22:39:29.376612+00:00", "meta": {"OBJECT_NAME": "GALAXY 37 (G-37)", "OBJECT_ID": "2023-112A", "EPOCH": "2025-12-13T05:27:57.429792", "MEAN_MOTION": 1.00271962, "ECCENTRICITY": 0.00021151, "INCLINATION": 0.016, "RA_OF_ASC_NODE": 39.1656, "ARG_OF_PERICENTER": 227.907, "MEAN_ANOMALY": 130.0817, "EPHEMERIS_TYPE": 0, "CLASSIFICATION_TYPE": "U", "NORAD_CAT_ID": 57493, "ELEMENT_SET_NO": 999, "REV_AT_EPOCH": 867, "BSTAR": 0, "MEAN_MOTION_DOT": 6.2e-07, "MEAN_MOTION_DDOT": 0}, "tle": {"line1": "1 57493U 23112A   25347.22774803  .00000062  00000+0  00000+0 0  9997", "line2": "2 57493   0.0160  39.1656 0002115 227.9070 130.0817  1.00271962  8672"}}, "geometry": {"type": "Point", "coordinates": [-64.2524987730278, -0.024427091761605985]}}]}